NORAD_CAT_ID,OBJECT_NAME,OBJECT_TYPE,EPOCH,MEAN_MOTION,ECCENTRICITY,INCLINATION,RA_OF_ASC_NODE,ARG_OF_PERICENTER,MEAN_ANOMALY,BSTAR,MEAN_MOTION_DOT,MEAN_MOTION_DDOT,TLE_LINE0,TLE_LINE1,TLE_LINE2,SEMIMAJOR_AXIS,PERIOD,APOGEE,PERIGEE,DECAYED
53436.0,STARLINK-4527,PAYLOAD,2022-12-30 05:32:51,15.08843678,0.0001587,53.218,295.7543,46.8912,313.2213,2.0761e-05,4.2e-07,0.0,0 STARLINK-4527,1 53436U 22097BA  22364.23115338  .00000042  00000-0  20761-4 0  9990,2 53436  53.2180 295.7543 0001587  46.8912 313.2213 15.08843678 22366,6917.869000000002,95.437,540.832,538.636,0.0
53436.0,STARLINK-4527,PAYLOAD,2022-12-31 00:37:30,15.08835117,0.0001551999999999,53.2163,292.1877,35.1326,324.9768,0.001477,0.00023293,0.0,0 STARLINK-4527,1 53436U 22097BA  22365.02605139  .00023293  00000-0  14770-2 0  9995,2 53436  53.2163 292.1877 0001552  35.1326 324.9768 15.08835117 22486,6917.895,95.438,540.8340000000002,538.687,0.0
53436.0,STARLINK-4527,PAYLOAD,2022-12-31 02:12:52,15.08864486,0.0001663,53.2175,291.8895,52.1149,307.9994,0.00086614,0.00013533,0.0,0 STARLINK-4527,1 53436U 22097BA  22365.09227259  .00013533  00000-0  86614-3 0  9998,2 53436  53.2175 291.8895 0001663  52.1149 307.9994 15.08864486 22494,6917.806,95.436,540.821,538.52,0.0
53436.0,STARLINK-4527,PAYLOAD,2022-12-31 11:45:10,15.08875344,0.0001714,53.2172,290.1049,53.7777,306.3373,0.00066389,0.00010304,0.0,0 STARLINK-4527,1 53436U 22097BA  22365.48970410  .00010304  00000-0  66389-3 0  9995,2 53436  53.2172 290.1049 0001714  53.7777 306.3373 15.08875344 23035,6917.772,95.435,540.823,538.452,0.0
53436.0,STARLINK-4527,PAYLOAD,2022-12-31 18:06:42,15.08876617,0.0001834,53.218,288.9176,58.7083,301.4088,0.0004373,6.685e-05,0.0,0 STARLINK-4527,1 53436U 22097BA  22365.75465832  .00006685  00000-0  43730-3 0  9994,2 53436  53.2180 288.9176 0001834  58.7083 301.4088 15.08876617 23075,6917.768,95.435,540.9019999999998,538.365,0.0
53436.0,STARLINK-4527,PAYLOAD,2023-01-01 05:14:24,15.088487400000002,0.0001551999999999,53.2183,286.8355,66.1123,294.0031,-0.00063813,-0.00010432,0.0,0 STARLINK-4527,1 53436U 22097BA  23001.21834002 -.00010432  00000-0 -63813-3 0  9993,2 53436  53.2183 286.8355 0001552  66.1123 294.0031 15.08848740 22664,6917.854,95.437,540.7919999999998,538.645,0.0
53436.0,STARLINK-4527,PAYLOAD,2023-01-01 19:32:54,15.08817906,0.0001875,53.2183,284.1574,50.7877,309.3281,-0.00053834,-8.841e-05,0.0,0 STARLINK-4527,1 53436U 22097BA  23001.81451786 -.00008841  00000-0 -53834-3 0  9996,2 53436  53.2183 284.1574 0001875  50.7877 309.3281 15.08817906 22758,6917.948,95.439,541.11,538.516,0.0
53436.0,STARLINK-4527,PAYLOAD,2023-01-02 11:26:46,15.08823458,0.0001804,53.2179,281.1839,49.5745,310.5404,-8.389799999999999e-05,-1.622e-05,0.0,0 STARLINK-4527,1 53436U 22097BA  23002.47692741 -.00001622  00000-0 -83898-4 0  9991,2 53436  53.2179 281.1839 0001804  49.5745 310.5404 15.08823458 22857,6917.931,95.439,541.044,538.548,0.0
53436.0,STARLINK-4527,PAYLOAD,2023-01-03 06:31:24,15.08847016,0.000175,53.2174,277.6167,52.5471,307.5681,0.00087769,0.00013711,0.0,0 STARLINK-4527,1 53436U 22097BA  23003.27181339  .00013711  00000-0  87769-3 0  9996,2 53436  53.2174 277.6167 0001750  52.5471 307.5681 15.08847016 22978,6917.859,95.437,540.935,538.513,0.0
53436.0,STARLINK-4527,PAYLOAD,2023-01-04 03:11:25,15.08842231,0.0001766,53.2174,273.7507,54.9498,305.166,0.00025901,3.837e-05,0.0,0 STARLINK-4527,1 53436U 22097BA  23004.13293506  .00003837  00000-0  25901-3 0  9990,2 53436  53.2174 273.7507 0001766  54.9498 305.1660 15.08842231 23106,6917.874,95.437,540.96,538.5169999999998,0.0
53436.0,STARLINK-4527,PAYLOAD,2023-01-04 11:08:21,15.08845009,0.0001746,53.2172,272.2642,55.9223,304.1934,0.00042732,6.52e-05,0.0,0 STARLINK-4527,1 53436U 22097BA  23004.46413416  .00006520  00000-0  42732-3 0  9993,2 53436  53.2172 272.2642 0001746  55.9223 304.1934 15.08845009 23630,6917.865,95.437,540.938,538.5219999999998,0.0
53436.0,STARLINK-4527,PAYLOAD,2023-01-05 03:02:11,15.08868821,0.0001789,53.217,269.291,54.8572,305.2588,0.00096787,0.00015161,0.0,0 STARLINK-4527,1 53436U 22097BA  23005.12652522  .00015161  00000-0  96787-3 0  9990,2 53436  53.2170 269.2910 0001789  54.8572 305.2588 15.08868821 23256,6917.792,95.436,540.895,538.42,0.0
53436.0,STARLINK-4527,PAYLOAD,2023-01-05 10:59:07,15.08842916,0.0001449,53.2172,267.8039,59.3806,300.7328,-0.0002672,-4.538e-05,0.0,0 STARLINK-4527,1 53436U 22097BA  23005.45772612 -.00004538  00000-0 -26720-3 0  9997,2 53436  53.2172 267.8039 0001449  59.3806 300.7328 15.08842916 23302,6917.871,95.437,540.739,538.734,0.0
53436.0,STARLINK-4527,PAYLOAD,2023-01-06 17:11:28,15.08843362,0.0001899,53.2161,262.1539,73.1963,286.9238,0.00030213,4.524e-05,0.0,0 STARLINK-4527,1 53436U 22097BA  23006.71629678  .00004524  00000-0  30213-3 0  9995,2 53436  53.2161 262.1539 0001899  73.1963 286.9238 15.08843362 23491,6917.87,95.437,541.049,538.4209999999998,0.0
53436.0,STARLINK-4527,PAYLOAD,2023-01-07 02:43:46,15.08857572,0.0001784,53.2163,260.3699,74.5529,285.5661,0.0010529,0.00016517,0.0,0 STARLINK-4527,1 53436U 22097BA  23007.11373669  .00016517  00000-0  10529-2 0  9998,2 53436  53.2163 260.3699 0001784  74.5529 285.5661 15.08857572 23556,6917.826999999998,95.436,540.9259999999998,538.4580000000002,0.0
53436.0,STARLINK-4527,PAYLOAD,2023-01-07 17:02:15,15.08848833,0.00017,53.2162,257.6936,82.5504,277.5681,0.00050147,7.704e-05,0.0,0 STARLINK-4527,1 53436U 22097BA  23007.70989841  .00007704  00000-0  50147-3 0  9997,2 53436  53.2162 257.6936 0001700  82.5504 277.5681 15.08848833 23641,6917.853,95.437,540.894,538.5419999999998,0.0
53436.0,STARLINK-4527,PAYLOAD,2023-01-08 08:56:06,15.0884328,0.00017,53.2164,254.7199,79.5003,280.6181,0.00036909,5.591e-05,0.0,0 STARLINK-4527,1 53436U 22097BA  23008.37229880  .00005591  00000-0  36909-3 0  9993,2 53436  53.2164 254.7199 0001700  79.5003 280.6181 15.08843280 23744,6917.87,95.437,540.911,538.559,0.0
53436.0,STARLINK-4527,PAYLOAD,2023-01-09 00:49:58,15.08836309,0.0001965,53.2163,251.7466,82.2004,277.9211,0.00031807,4.777e-05,0.0,0 STARLINK-4527,1 53436U 22097BA  23009.03470268  .00004777  00000-0  31807-3 0  9992,2 53436  53.2163 251.7466 0001965  82.2004 277.9211 15.08836309 23840,6917.892,95.438,541.116,538.3969999999998,0.0
53436.0,STARLINK-4527,PAYLOAD,2023-01-09 08:46:54,15.08835264,0.0001848,53.2164,250.2598,79.5509,280.5691,0.00017018,2.421e-05,0.0,0 STARLINK-4527,1 53436U 22097BA  23009.36590363  .00002421  00000-0  17018-3 0  9999,2 53436  53.2164 250.2598 0001848  79.5509 280.5691 15.08835264 24370,6917.895,95.438,541.038,538.481,0.0
53436.0,STARLINK-4527,PAYLOAD,2023-01-10 02:16:08,15.08840561,0.0001781999999999,53.2167,246.9884,79.0918,281.0274,0.00019427,2.805e-05,0.0,0 STARLINK-4527,1 53436U 22097BA  23010.09454306  .00002805  00000-0  19427-3 0  9999,2 53436  53.2167 246.9884 0001782  79.0918 281.0274 15.08840561 24008,6917.879,95.438,540.976,538.511,0.0
53436.0,STARLINK-4527,PAYLOAD,2023-01-11 00:31:32,15.08843494,0.0001967,53.2157,242.8256,77.5011,282.6201,0.00018343,2.633e-05,0.0,0 STARLINK-4527,1 53436U 22097BA  23011.02190364  .00002633  00000-0  18343-3 0  9999,2 53436  53.2157 242.8256 0001967  77.5011 282.6201 15.08843494 24620,6917.87,95.437,541.095,538.374,0.0
53436.0,STARLINK-4527,PAYLOAD,2023-01-11 21:11:33,15.08841787,0.0002182,53.2098,238.9622,81.4767,278.6472,0.0001058,1.396e-05,0.0,0 STARLINK-4527,1 53436U 22097BA  23011.88302576  .00001396  00000-0  10580-3 0  9993,2 53436  53.2098 238.9622 0002182  81.4767 278.6472 15.08841787 24751,6917.875,95.437,541.249,538.23,0.0
53436.0,STARLINK-4527,PAYLOAD,2023-01-12 00:22:19,15.08838365,0.0001595999999999,53.2157,238.3648,85.1405,274.97700000000003,4.2029e-05,3.81e-06,0.0,0 STARLINK-4527,1 53436U 22097BA  23012.01550608  .00000381  00000-0  42029-4 0  9997,2 53436  53.2157 238.3648 0001596  85.1405 274.9770 15.08838365 24294,6917.885,95.438,540.854,538.646,0.0
53436.0,STARLINK-4527,PAYLOAD,2023-01-12 21:02:20,15.08831276,0.0001551,53.2147,234.4993,96.4812,263.6357,0.00072993,0.00011345,0.0,0 STARLINK-4527,1 53436U 22097BA  23012.87662812  .00011345  00000-0  72993-3 0  9996,2 53436  53.2147 234.4993 0001551  96.4812 263.6357 15.08831276 24909,6917.906999999998,95.438,540.845,538.6990000000002,0.0
53436.0,STARLINK-4527,PAYLOAD,2023-01-13 00:13:06,15.08848965,0.0001473,53.2145,233.9044,92.7797,267.3364,0.00032029,4.814e-05,0.0,0 STARLINK-4527,1 53436U 22097BA  23013.00910019  .00004814  00000-0  32029-3 0  9996,2 53436  53.2145 233.9044 0001473  92.7797 267.3364 15.08848965 24443,6917.853,95.437,540.737,538.6990000000002,0.0
53436.0,STARLINK-4527,PAYLOAD,2023-01-13 08:10:02,15.08837339,0.0001808,53.2144,232.4186,82.8444,277.2754,0.00011404,1.527e-05,0.0,0 STARLINK-4527,1 53436U 22097BA  23013.34030794  .00001527  00000-0  11404-3 0  9998,2 53436  53.2144 232.4186 0001808  82.8444 277.2754 15.08837339 24495,6917.889,95.438,541.004,538.503,0.0
53436.0,STARLINK-4527,PAYLOAD,2023-01-13 20:53:07,15.08841527,0.0001728,53.2144,230.0392,83.9373,276.1816,9.2358e-05,1.182e-05,0.0,0 STARLINK-4527,1 53436U 22097BA  23013.87022663  .00001182  00000-0  92358-4 0  9997,2 53436  53.2144 230.0392 0001728  83.9373 276.1816 15.08841527 25056,6917.876,95.437,540.936,538.545,0.0
53436.0,STARLINK-4527,PAYLOAD,2023-01-14 14:22:22,15.08840087,0.0001409999999999,53.2146,226.7674,86.9099,273.2054,7.1502e-05,8.5e-06,0.0,0 STARLINK-4527,1 53436U 22097BA  23014.59886655  .00000850  00000-0  71502-4 0  9995,2 53436  53.2146 226.7674 0001410  86.9099 273.2054 15.08840087 24689,6917.88,95.438,540.721,538.77,0.0
53436.0,STARLINK-4527,PAYLOAD,2023-01-14 23:54:37,15.08888729,0.0001389,53.2158,224.9838,79.7261,280.3887,0.00037428,5.682e-05,0.0,0 STARLINK-4527,1 53436U 22097BA  23014.99626236  .00005682  00000-0  37428-3 0  9992,2 53436  53.2158 224.9838 0001389  79.7261 280.3887 15.08888729 24745,6917.731,95.434,540.557,538.636,0.0
